CCSDS_OMM_VERS = 2.0
CREATION_DATE  = 
ORIGINATOR     = 

OBJECT_NAME    = STARLINK-36816
OBJECT_ID      = 2026-035N
CENTER_NAME    = EARTH
REF_FRAME      = TEME
TIME_SYSTEM    = UTC
MEAN_ELEMENT_THEORY = SGP/SGP4

EPOCH          = 2026-03-22T22:00:01.999584
MEAN_MOTION    = 15.73897662
ECCENTRICITY   = .00015901
INCLINATION    = 97.2852
RA_OF_ASC_NODE = 15.0526
ARG_OF_PERICENTER = 106.9279
MEAN_ANOMALY   = 175.6593

EPHEMERIS_TYPE = 0
CLASSIFICATION_TYPE = U
NORAD_CAT_ID   = 67891
ELEMENT_SET_NO = 999
REV_AT_EPOCH   = 578
BSTAR          = -.15959302E-1
MEAN_MOTION_DOT = -.1952168E-1
MEAN_MOTION_DDOT = 0

CCSDS_OMM_VERS = 2.0
CREATION_DATE  = 
ORIGINATOR     = 

OBJECT_NAME    = STARLINK-36813
OBJECT_ID      = 2026-035P
CENTER_NAME    = EARTH
REF_FRAME      = TEME
TIME_SYSTEM    = UTC
MEAN_ELEMENT_THEORY = SGP/SGP4

EPOCH          = 2026-03-22T17:47:28.544640
MEAN_MOTION    = 15.80960479
ECCENTRICITY   = .00009656
INCLINATION    = 97.2894
RA_OF_ASC_NODE = 14.8610
ARG_OF_PERICENTER = 101.6256
MEAN_ANOMALY   = 258.5120

EPHEMERIS_TYPE = 0
CLASSIFICATION_TYPE = U
NORAD_CAT_ID   = 67892
ELEMENT_SET_NO = 999
REV_AT_EPOCH   = 590
BSTAR          = .15725922E-2
MEAN_MOTION_DOT = .314263E-2
MEAN_MOTION_DDOT = 0

CCSDS_OMM_VERS = 2.0
CREATION_DATE  = 
ORIGINATOR     = 

OBJECT_NAME    = STARLINK-36803
OBJECT_ID      = 2026-035Q
CENTER_NAME    = EARTH
REF_FRAME      = TEME
TIME_SYSTEM    = UTC
MEAN_ELEMENT_THEORY = SGP/SGP4

EPOCH          = 2026-03-22T19:25:06.939840
MEAN_MOTION    = 15.80862894
ECCENTRICITY   = .00014908
INCLINATION    = 97.2872
RA_OF_ASC_NODE = 14.9248
ARG_OF_PERICENTER = 79.0135
MEAN_ANOMALY   = 281.1301

EPHEMERIS_TYPE = 0
CLASSIFICATION_TYPE = U
NORAD_CAT_ID   = 67893
ELEMENT_SET_NO = 999
REV_AT_EPOCH   = 591
BSTAR          = -.65092512E-4
MEAN_MOTION_DOT = -.12619E-3
MEAN_MOTION_DDOT = 0

CCSDS_OMM_VERS = 2.0
CREATION_DATE  = 
ORIGINATOR     = 

OBJECT_NAME    = STARLINK-36846
OBJECT_ID      = 2026-035R
CENTER_NAME    = EARTH
REF_FRAME      = TEME
TIME_SYSTEM    = UTC
MEAN_ELEMENT_THEORY = SGP/SGP4

EPOCH          = 2026-03-22T18:36:58.335552
MEAN_MOTION    = 15.75293294
ECCENTRICITY   = .00020873
INCLINATION    = 97.2862
RA_OF_ASC_NODE = 14.8185
ARG_OF_PERICENTER = 105.6302
MEAN_ANOMALY   = 254.5194

EPHEMERIS_TYPE = 0
CLASSIFICATION_TYPE = U
NORAD_CAT_ID   = 67894
ELEMENT_SET_NO = 999
REV_AT_EPOCH   = 590
BSTAR          = .17347153E-2
MEAN_MOTION_DOT = .268102E-2
MEAN_MOTION_DDOT = 0

CCSDS_OMM_VERS = 2.0
CREATION_DATE  = 
ORIGINATOR     = 

OBJECT_NAME    = STARLINK-36866
OBJECT_ID      = 2026-035S
CENTER_NAME    = EARTH
REF_FRAME      = TEME
TIME_SYSTEM    = UTC
MEAN_ELEMENT_THEORY = SGP/SGP4

EPOCH          = 2026-03-22T18:25:47.106912
MEAN_MOTION    = 15.75297627
ECCENTRICITY   = .0001901
INCLINATION    = 97.2861
RA_OF_ASC_NODE = 14.8282
ARG_OF_PERICENTER = 121.1706
MEAN_ANOMALY   = 238.9746

EPHEMERIS_TYPE = 0
CLASSIFICATION_TYPE = U
NORAD_CAT_ID   = 67895
ELEMENT_SET_NO = 999
REV_AT_EPOCH   = 590
BSTAR          = .17200713E-2
MEAN_MOTION_DOT = .265814E-2
MEAN_MOTION_DDOT = 0

CCSDS_OMM_VERS = 2.0
CREATION_DATE  = 
ORIGINATOR     = 

OBJECT_NAME    = STARLINK-36877
OBJECT_ID      = 2026-035T
CENTER_NAME    = EARTH
REF_FRAME      = TEME
TIME_SYSTEM    = UTC
MEAN_ELEMENT_THEORY = SGP/SGP4

EPOCH          = 2026-03-22T19:24:01.984320
MEAN_MOTION    = 15.80897910
ECCENTRICITY   = .00019575
INCLINATION    = 97.2874
RA_OF_ASC_NODE = 14.9255
ARG_OF_PERICENTER = 61.6862
MEAN_ANOMALY   = 298.4604

EPHEMERIS_TYPE = 0
CLASSIFICATION_TYPE = U
NORAD_CAT_ID   = 67896
ELEMENT_SET_NO = 999
REV_AT_EPOCH   = 591
BSTAR          = .48095135E-3
MEAN_MOTION_DOT = .93328E-3
MEAN_MOTION_DDOT = 0

CCSDS_OMM_VERS = 2.0
CREATION_DATE  = 
ORIGINATOR     = 

OBJECT_NAME    = STARLINK-36870
OBJECT_ID      = 2026-035U
CENTER_NAME    = EARTH
REF_FRAME      = TEME
TIME_SYSTEM    = UTC
MEAN_ELEMENT_THEORY = SGP/SGP4

EPOCH          = 2026-03-22T22:00:01.999584
MEAN_MOTION    = 15.75335902
ECCENTRICITY   = .0001676
INCLINATION    = 97.2858
RA_OF_ASC_NODE = 15.0304
ARG_OF_PERICENTER = 92.8247
MEAN_ANOMALY   = 136.5451

EPHEMERIS_TYPE = 0
CLASSIFICATION_TYPE = U
NORAD_CAT_ID   = 67897
ELEMENT_SET_NO = 999
REV_AT_EPOCH   = 588
BSTAR          = -.22462893E-2
MEAN_MOTION_DOT = -.324845E-2
MEAN_MOTION_DDOT = 0

CCSDS_OMM_VERS = 2.0
CREATION_DATE  = 
ORIGINATOR     = 

OBJECT_NAME    = STARLINK-36810
OBJECT_ID      = 2026-035V
CENTER_NAME    = EARTH
REF_FRAME      = TEME
TIME_SYSTEM    = UTC
MEAN_ELEMENT_THEORY = SGP/SGP4

EPOCH          = 2026-03-22T07:31:40.953216
MEAN_MOTION    = 15.75275464
ECCENTRICITY   = .00012461
INCLINATION    = 97.2881
RA_OF_ASC_NODE = 14.3725
ARG_OF_PERICENTER = 110.0166
MEAN_ANOMALY   = 250.1234

EPHEMERIS_TYPE = 0
CLASSIFICATION_TYPE = U
NORAD_CAT_ID   = 67898
ELEMENT_SET_NO = 999
REV_AT_EPOCH   = 583
BSTAR          = .20906418E-2
MEAN_MOTION_DOT = .325074E-2
MEAN_MOTION_DDOT = 0

CCSDS_OMM_VERS = 2.0
CREATION_DATE  = 
ORIGINATOR     = 

OBJECT_NAME    = STARLINK-36878
OBJECT_ID      = 2026-035W
CENTER_NAME    = EARTH
REF_FRAME      = TEME
TIME_SYSTEM    = UTC
MEAN_ELEMENT_THEORY = SGP/SGP4

EPOCH          = 2026-03-22T19:17:32.960544
MEAN_MOTION    = 15.80965313
ECCENTRICITY   = .00010886
INCLINATION    = 97.2890
RA_OF_ASC_NODE = 14.9304
ARG_OF_PERICENTER = 98.0011
MEAN_ANOMALY   = 262.1381

EPHEMERIS_TYPE = 0
CLASSIFICATION_TYPE = U
NORAD_CAT_ID   = 67899
ELEMENT_SET_NO = 999
REV_AT_EPOCH   = 591
BSTAR          = .18101848E-2
MEAN_MOTION_DOT = .363937E-2
MEAN_MOTION_DDOT = 0

CCSDS_OMM_VERS = 2.0
CREATION_DATE  = 
ORIGINATOR     = 

OBJECT_NAME    = STARLINK-36361
OBJECT_ID      = 2026-035X
CENTER_NAME    = EARTH
REF_FRAME      = TEME
TIME_SYSTEM    = UTC
MEAN_ELEMENT_THEORY = SGP/SGP4

EPOCH          = 2026-03-22T17:45:17.868960
MEAN_MOTION    = 15.81031522
ECCENTRICITY   = .00014177
INCLINATION    = 97.2885
RA_OF_ASC_NODE = 14.8654
ARG_OF_PERICENTER = 110.3419
MEAN_ANOMALY   = 249.8002

EPHEMERIS_TYPE = 0
CLASSIFICATION_TYPE = U
NORAD_CAT_ID   = 67900
ELEMENT_SET_NO = 999
REV_AT_EPOCH   = 590
BSTAR          = .18952484E-2
MEAN_MOTION_DOT = .383042E-2
MEAN_MOTION_DDOT = 0

CCSDS_OMM_VERS = 2.0
CREATION_DATE  = 
ORIGINATOR     = 

OBJECT_NAME    = STARLINK-36336
OBJECT_ID      = 2026-035Y
CENTER_NAME    = EARTH
REF_FRAME      = TEME
TIME_SYSTEM    = UTC
MEAN_ELEMENT_THEORY = SGP/SGP4

EPOCH          = 2026-03-22T22:00:01.999584
MEAN_MOTION    = 15.75221970
ECCENTRICITY   = .0001814
INCLINATION    = 97.2862
RA_OF_ASC_NODE = 15.0231
ARG_OF_PERICENTER = 91.2595
MEAN_ANOMALY   = 120.1264

EPHEMERIS_TYPE = 0
CLASSIFICATION_TYPE = U
NORAD_CAT_ID   = 67901
ELEMENT_SET_NO = 999
REV_AT_EPOCH   = 593
BSTAR          = -.90502529E-3
MEAN_MOTION_DOT = -.133232E-2
MEAN_MOTION_DDOT = 0

CCSDS_OMM_VERS = 2.0
CREATION_DATE  = 
ORIGINATOR     = 

OBJECT_NAME    = STARLINK-36876
OBJECT_ID      = 2026-035Z
CENTER_NAME    = EARTH
REF_FRAME      = TEME
TIME_SYSTEM    = UTC
MEAN_ELEMENT_THEORY = SGP/SGP4

EPOCH          = 2026-03-22T22:00:01.999584
MEAN_MOTION    = 15.75794722
ECCENTRICITY   = .00015182
INCLINATION    = 97.2856
RA_OF_ASC_NODE = 15.0533
ARG_OF_PERICENTER = 89.6081
MEAN_ANOMALY   = 191.4320

EPHEMERIS_TYPE = 0
CLASSIFICATION_TYPE = U
NORAD_CAT_ID   = 67902
ELEMENT_SET_NO = 999
REV_AT_EPOCH   = 588
BSTAR          = -.64565834E-2
MEAN_MOTION_DOT = -.891626E-2
MEAN_MOTION_DDOT = 0

