STARLINK-36816          
1 67891U 26035N   26081.91668981 -.01952168  00000+0 -15959-1 0  9995
2 67891  97.2852  15.0526 0001590 106.9279 175.6593 15.73897662  5784
STARLINK-36813          
1 67892U 26035P   26081.74130260  .00314263  00000+0  15726-2 0  9999
2 67892  97.2894  14.8610 0000965 101.6256 258.5120 15.80960479  5900
STARLINK-36803          
1 67893U 26035Q   26081.80910810 -.00012619  00000+0 -65093-4 0  9990
2 67893  97.2872  14.9248 0001490  79.0135 281.1301 15.80862894  5919
STARLINK-36846          
1 67894U 26035R   26081.77567518  .00268102  00000+0  17347-2 0  9995
2 67894  97.2862  14.8185 0002087 105.6302 254.5194 15.75293294  5902
STARLINK-36866          
1 67895U 26035S   26081.76790633  .00265814  00000+0  17201-2 0  9997
2 67895  97.2861  14.8282 0001901 121.1706 238.9746 15.75297627  5908
STARLINK-36877          
1 67896U 26035T   26081.80835630  .00093328  00000+0  48095-3 0  9995
2 67896  97.2874  14.9255 0001957  61.6862 298.4604 15.80897910  5918
STARLINK-36870          
1 67897U 26035U   26081.91668981 -.00324845  00000+0 -22463-2 0  9994
2 67897  97.2858  15.0304 0001676  92.8247 136.5451 15.75335902  5889
STARLINK-36810          
1 67898U 26035V   26081.31366844  .00325074  00000+0  20906-2 0  9995
2 67898  97.2881  14.3725 0001246 110.0166 250.1234 15.75275464  5834
STARLINK-36878          
1 67899U 26035W   26081.80385371  .00363937  00000+0  18102-2 0  9991
2 67899  97.2890  14.9304 0001088  98.0011 262.1381 15.80965313  5912
STARLINK-36361          
1 67900U 26035X   26081.73979015  .00383042  00000+0  18952-2 0  9992
2 67900  97.2885  14.8654 0001417 110.3419 249.8002 15.81031522  5900
STARLINK-36336          
1 67901U 26035Y   26081.91668981 -.00133232  00000+0 -90503-3 0  9999
2 67901  97.2862  15.0231 0001814  91.2595 120.1264 15.75221970  5938
STARLINK-36876          
1 67902U 26035Z   26081.91668981 -.00891626  00000+0 -64566-2 0  9997
2 67902  97.2856  15.0533 0001518  89.6081 191.4320 15.75794722  5887
